STARLINK-37491          
1 69166U 26111U   26159.22547324  .00157872  00000+0  89401-3 0  9995
2 69166  53.1591 196.5185 0001214 129.5872 230.5257 15.78113773  2842
STARLINK-37474          
1 69167U 26111V   26159.22292076  .00148481  00000+0  84226-3 0  9993
2 69167  53.1593 196.5008 0001014 103.2150 256.8985 15.78106400  2843
STARLINK-37469          
1 69168U 26111W   26159.25004630 -.02571375  00000+0 -28098-1 0  9993
2 69168  53.1602 196.4266 0001314  57.9510  66.3698 15.66277403  4114
STARLINK-37515          
1 69169U 26111X   26159.22128217  .00151892  00000+0  86093-3 0  9994
2 69169  53.1595 196.4919 0001420  70.9051 289.2125 15.78112724  2840
STARLINK-37437          
1 69170U 26111Y   26157.69752450  .00149746  00000+0  74851-3 0  9991
2 69170  53.1586 204.0510 0000732  63.0627 297.0470 15.80891266  2604
STARLINK-37392          
1 69171U 26111Z   26159.25004630 -.00074714  00000+0 -42949-3 0  9993
2 69171  53.1592 196.2666 0000949  59.4007 142.8529 15.78092881  4110
STARLINK-37472          
1 69172U 26111AA  26159.25004630 -.00155553  00000+0 -90391-3 0  9999
2 69172  53.1596 196.2352 0000840 101.2660 116.1628 15.78165584  4113
STARLINK-37461          
1 69173U 26111AB  26159.25004630 -.02560036  00000+0 -25983-1 0  9991
2 69173  53.1596 196.3765 0001362  67.6294  80.6809 15.68056975  4119
STARLINK-37333          
1 69174U 26111AC  26159.21966752  .00096910  00000+0  55488-3 0  9996
2 69174  53.1588 196.4785 0001130  98.6738 261.4412 15.78086522  2843
STARLINK-37385          
1 69175U 26111AD  26159.25004630 -.02579855  00000+0 -24135-1 0  9990
2 69175  53.1598 196.3400 0001328  78.6327  87.6004 15.70036894  4115
STARLINK-37414          
1 69176U 26111AE  26159.25004630 -.00163315  00000+0 -94973-3 0  9998
2 69176  53.1590 196.2761 0001148 100.7334  96.8673 15.78172480  4116
STRIX-7                 
1 69177U 26112A   26159.25663183  .00003315  00000+0  26937-3 0  9990
2 69177  44.9065 239.3533 0024063 356.6435   3.4272 15.01389801  2539
SHENZHOU-23 (SZ-23)     
1 69180U 26113A   26159.08188283  .00025465  00000+0  30374-3 0  9999
2 69180  41.4696  17.3987 0008702   5.5904 354.5031 15.60427341291883
STARLINK-37380          
1 69182U 26114A   26159.25004630 -.00019144  00000+0 -10661-3 0  9990
2 69182  53.1587 247.1116 0001137 109.9557  25.2308 15.78063479  3370
STARLINK-37089          
1 69183U 26114B   26159.25004630 -.00031442  00000+0 -17780-3 0  9995
2 69183  53.1586 247.1007 0001090  81.2970  59.1986 15.78067248  3374
STARLINK-37428          
1 69184U 26114C   26159.25004630 -.00034349  00000+0 -19463-3 0  9995
2 69184  53.1587 247.0848 0001060  82.2906  66.1952 15.78071225  3376
STARLINK-37237          
1 69185U 26114D   26159.25004630 -.00027646  00000+0 -15578-3 0  9991
2 69185  53.1587 247.0518 0001033  93.9126  70.2183 15.78070785  3376
STARLINK-37365          
1 69186U 26114E   26159.25004630 -.00005546  00000+0 -28114-4 0  9998
2 69186  53.1589 247.0555 0001084 103.8495  58.5076 15.78056280  3370
STARLINK-37209          
1 69187U 26114F   26159.25004630  .00031577  00000+0  18515-3 0  9993
2 69187  53.1588 247.0466 0000925  78.1543  88.5960 15.78040265  3373
STARLINK-37359          
1 69188U 26114G   26159.25004630  .00006162  00000+0  39316-4 0  9999
2 69188  53.1589 247.0413 0001023 107.0615  62.1965 15.78052238  3375
STARLINK-37440          
1 69189U 26114H   26159.25004630 -.00045923  00000+0 -22988-3 0  9996
2 69189  53.1596 246.6220 0001195  86.3552 285.2349 15.80917371  3379
STARLINK-37282          
1 69190U 26114J   26159.21395845 -.00793341  00000+0 -46090-2 0  9998
2 69190  53.1586 247.1478 0003702   7.7610 352.3469 15.79837895  3356
STARLINK-37422          
1 69191U 26114K   26159.25004630  .00092852  00000+0  46970-3 0  9997
2 69191  53.1589 246.9444 0001099  94.3550 121.9698 15.80837020  3370
STARLINK-37424          
1 69192U 26114L   26159.25004630 -.00023977  00000+0 -13454-3 0  9993
2 69192  53.1592 246.9674 0001148  79.3867 125.9320 15.78069511  3374
STARLINK-36666          
1 69193U 26114M   26159.25004630  .00084970  00000+0  43054-3 0  9991
2 69193  53.1587 246.9469 0001259 112.6949 102.3733 15.80836020  3373
STARLINK-37355          
1 69194U 26114N   26159.25004630  .00058431  00000+0  29781-3 0  9996
2 69194  53.1588 246.9385 0001122  89.8316 129.4990 15.80855802  3378
STARLINK-37166          
1 69195U 26114P   26159.25004630 -.00158302  00000+0 -80872-3 0  9995
2 69195  53.1587 246.9206 0001250  99.5559 128.3437 15.80992984  3376
