OBJECT_NAME,OBJECT_ID,EPOCH,MEAN_MOTION,ECCENTRICITY,INCLINATION,RA_OF_ASC_NODE,ARG_OF_PERICENTER,MEAN_ANOMALY,EPHEMERIS_TYPE,CLASSIFICATION_TYPE,NORAD_CAT_ID,ELEMENT_SET_NO,REV_AT_EPOCH,BSTAR,MEAN_MOTION_DOT,MEAN_MOTION_DDOT
STARLINK-37491,2026-111U,2026-06-08T05:24:40.887936,15.78113773,.00012147,53.1591,196.5185,129.5872,230.5257,0,U,69166,999,284,.89400753E-3,.157872E-2,0
STARLINK-37474,2026-111V,2026-06-08T05:21:00.353664,15.78106400,.00010149,53.1593,196.5008,103.2150,256.8985,0,U,69167,999,284,.84226255E-3,.148481E-2,0
STARLINK-37469,2026-111W,2026-06-08T06:00:04.000320,15.66277403,.00013144,53.1602,196.4266,57.9510,66.3698,0,U,69168,999,411,-.28098249E-1,-.2571375E-1,0
STARLINK-37515,2026-111X,2026-06-08T05:18:38.779488,15.78112724,.00014203,53.1595,196.4919,70.9051,289.2125,0,U,69169,999,284,.86093115E-3,.151892E-2,0
STARLINK-37437,2026-111Y,2026-06-06T16:44:26.116800,15.80891266,.00007328,53.1586,204.0510,63.0627,297.0470,0,U,69170,999,260,.74850576E-3,.149746E-2,0
STARLINK-37392,2026-111Z,2026-06-08T06:00:04.000320,15.78092881,.00009494,53.1592,196.2666,59.4007,142.8529,0,U,69171,999,411,-.42948587E-3,-.74714E-3,0
STARLINK-37472,2026-111AA,2026-06-08T06:00:04.000320,15.78165584,.000084,53.1596,196.2352,101.2660,116.1628,0,U,69172,999,411,-.90390571E-3,-.155553E-2,0
STARLINK-37461,2026-111AB,2026-06-08T06:00:04.000320,15.68056975,.00013628,53.1596,196.3765,67.6294,80.6809,0,U,69173,999,411,-.25983207E-1,-.2560036E-1,0
STARLINK-37333,2026-111AC,2026-06-08T05:16:19.273728,15.78086522,.00011307,53.1588,196.4785,98.6738,261.4412,0,U,69174,999,284,.55487956E-3,.9691E-3,0
STARLINK-37385,2026-111AD,2026-06-08T06:00:04.000320,15.70036894,.00013287,53.1598,196.3400,78.6327,87.6004,0,U,69175,999,411,-.24135E-1,-.2579855E-1,0
STARLINK-37414,2026-111AE,2026-06-08T06:00:04.000320,15.78172480,.00011484,53.1590,196.2761,100.7334,96.8673,0,U,69176,999,411,-.9497253E-3,-.163315E-2,0
STRIX-7,2026-112A,2026-06-08T06:09:32.990112,15.01389801,.00240633,44.9065,239.3533,356.6435,3.4272,0,U,69177,999,253,.26936615E-3,.3315E-4,0
SHENZHOU-23 (SZ-23),2026-113A,2026-06-08T01:57:54.676512,15.60427341,.00087027,41.4696,17.3987,5.5904,354.5031,0,U,69180,999,29188,.30374166E-3,.25465E-3,0
STARLINK-37380,2026-114A,2026-06-08T06:00:04.000320,15.78063479,.00011374,53.1587,247.1116,109.9557,25.2308,0,U,69182,999,337,-.10661068E-3,-.19144E-3,0
STARLINK-37089,2026-114B,2026-06-08T06:00:04.000320,15.78067248,.00010909,53.1586,247.1007,81.2970,59.1986,0,U,69183,999,337,-.1777971E-3,-.31442E-3,0
STARLINK-37428,2026-114C,2026-06-08T06:00:04.000320,15.78071225,.00010601,53.1587,247.0848,82.2906,66.1952,0,U,69184,999,337,-.19462746E-3,-.34349E-3,0
STARLINK-37237,2026-114D,2026-06-08T06:00:04.000320,15.78070785,.00010333,53.1587,247.0518,93.9126,70.2183,0,U,69185,999,337,-.15577681E-3,-.27646E-3,0
STARLINK-37365,2026-114E,2026-06-08T06:00:04.000320,15.78056280,.00010841,53.1589,247.0555,103.8495,58.5076,0,U,69186,999,337,-.28114011E-4,-.5546E-4,0
STARLINK-37209,2026-114F,2026-06-08T06:00:04.000320,15.78040265,.00009251,53.1588,247.0466,78.1543,88.5960,0,U,69187,999,337,.185153E-3,.31577E-3,0
STARLINK-37359,2026-114G,2026-06-08T06:00:04.000320,15.78052238,.00010235,53.1589,247.0413,107.0615,62.1965,0,U,69188,999,337,.39315522E-4,.6162E-4,0
STARLINK-37440,2026-114H,2026-06-08T06:00:04.000320,15.80917371,.00011957,53.1596,246.6220,86.3552,285.2349,0,U,69189,999,337,-.22988167E-3,-.45923E-3,0
STARLINK-37282,2026-114J,2026-06-08T05:08:06.010080,15.79837895,.00037023,53.1586,247.1478,7.7610,352.3469,0,U,69190,999,335,-.46090053E-2,-.793341E-2,0
STARLINK-37422,2026-114K,2026-06-08T06:00:04.000320,15.80837020,.00010991,53.1589,246.9444,94.3550,121.9698,0,U,69191,999,337,.46970367E-3,.92852E-3,0
STARLINK-37424,2026-114L,2026-06-08T06:00:04.000320,15.78069511,.00011484,53.1592,246.9674,79.3867,125.9320,0,U,69192,999,337,-.13453762E-3,-.23977E-3,0
STARLINK-36666,2026-114M,2026-06-08T06:00:04.000320,15.80836020,.00012599,53.1587,246.9469,112.6949,102.3733,0,U,69193,999,337,.43054135E-3,.8497E-3,0
STARLINK-37355,2026-114N,2026-06-08T06:00:04.000320,15.80855802,.00011227,53.1588,246.9385,89.8316,129.4990,0,U,69194,999,337,.29780891E-3,.58431E-3,0
STARLINK-37166,2026-114P,2026-06-08T06:00:04.000320,15.80992984,.000125,53.1587,246.9206,99.5559,128.3437,0,U,69195,999,337,-.80871724E-3,-.158302E-2,0
